{"type": "FeatureCollection", "features": [ {"type": "Feature", "properties": {"norad_id": 64202, "name": "GPS BIII-8  (PRN 21)", "group": "gnss", "lat": -28.321204527724863, "lon": -119.43747676129692, "alt_km": 20187.067383589438, "timestamp": "2025-12-16T21:38:57.418572+00:00", "meta": {"OBJECT_NAME": "GPS BIII-8  (PRN 21)", "OBJECT_ID": "2025-116A", "EPOCH": "2025-12-14T02:46:13.653120", "MEAN_MOTION": 2.00558299, "ECCENTRICITY": 0.00056153, "INCLINATION": 55.1067, "RA_OF_ASC_NODE": 38.5851, "ARG_OF_PERICENTER": 308.147, "MEAN_ANOMALY": 55.2369, "EPHEMERIS_TYPE": 0, "CLASSIFICATION_TYPE": "U", "NORAD_CAT_ID": 64202, "ELEMENT_SET_NO": 999, "REV_AT_EPOCH": 416, "BSTAR": 0, "MEAN_MOTION_DOT": -9.6e-07, "MEAN_MOTION_DDOT": 0}, "tle": {"line1": "1 64202U 25116A   25348.11543580 -.00000096  00000+0  00000+0 0  9992", "line2": "2 64202  55.1067  38.5851 0005615 308.1470  55.2369  2.00558299  4161"}}, "geometry": {"type": "Point", "coordinates": [-119.43747676129692, -28.321204527724863]}}, {"type": "Feature", "properties": {"norad_id": 65590, "name": "COSMOS 2596 (708K)", "group": "gnss", "lat": -8.163706450285515, "lon": -42.566382930787185, "alt_km": 19105.965436067887, "timestamp": "2025-12-16T21:38:57.418583+00:00", "meta": {"OBJECT_NAME": "COSMOS 2596 (708K)", "OBJECT_ID": "2025-206B", "EPOCH": "2025-12-16T02:29:28.552416", "MEAN_MOTION": 2.13100546, "ECCENTRICITY": 0.00140382, "INCLINATION": 64.7427, "RA_OF_ASC_NODE": 321.3574, "ARG_OF_PERICENTER": 306.6506, "MEAN_ANOMALY": 151.812, "EPHEMERIS_TYPE": 0, "CLASSIFICATION_TYPE": "U", "NORAD_CAT_ID": 65590, "ELEMENT_SET_NO": 999, "REV_AT_EPOCH": 201, "BSTAR": 0, "MEAN_MOTION_DOT": -6.9e-07, "MEAN_MOTION_DDOT": 0}, "tle": {"line1": "1 65590U 25206B   25350.10380269 -.00000069  00000+0  00000+0 0  9998", "line2": "2 65590  64.7427 321.3574 0014038 306.6506 151.8120  2.13100546  2017"}}, "geometry": {"type": "Point", "coordinates": [-42.566382930787185, -8.163706450285515]}}]}